{
    "type": "FeatureCollection",
    "features": [
        {
            "type": "feature",
            "geometry": {
                "type": "Polygon",
                "coordinates": [
                    [
                        37.1,
                        55.2
                    ],
                    [
                        37.1,
                        55.3
                    ],
                    [
                        37.2,
                        55.3
                    ],
                    [
                        37.2,
                        55.2
                    ],
                    [
                        37.1,
                        55.2
                    ]
                ]
            },
            "properties": {
                "zone_id": "zone_1"
            }
        },
        {
            "type": "feature",
            "geometry": {
                "type": "Polygon",
                "coordinates": [
                    [
                        37.3,
                        55.4
                    ],
                    [
                        37.3,
                        55.5
                    ],
                    [
                        37.4,
                        55.5
                    ],
                    [
                        37.4,
                        55.4
                    ],
                    [
                        37.3,
                        55.4
                    ]
                ]
            },
            "properties": {
                "zone_id": "zone_2"
            }
        }
    ]
}